C/2022 R2 (ATLAS),e,52.9062,60.4113,78.3461,420.8667,0.0001142,0.99849864,0.0000,10/25.2732/2022,2000,g 17.0,4.0
# From MPEC 2024-DC6
C/2022 R3 (Leonard),h,03/05.5289/2023,43.0822,8.2430,72.8889,1.001132,5.129484,2000,9.0,4.0
# From MPEC 2022-X67
P/2022 R4 (PANSTARRS),e,21.0196,176.6290,197.4640,3.836982,0.1311352,0.49000109,78.5061,02/29.0/2024,2000,g 16.5,4.0
# From MPEC 2022-WQ9
P/2022 R5 (PANSTARRS),e,15.2943,115.0504,240.5585,3.068766,0.1833405,0.19521573,117.8518,02/29.0/2024,2000,g 16.0,4.0
# From MPEC 2024-DC6
C/2022 R6 (PANSTARRS),h,08/25.5703/2025,57.0215,150.7761,319.8618,1.004451,6.566881,2000,5.0,4.0
# From MPEC 2023-HD1
P/2022 S1 (PANSTARRS),e,34.5781,136.0934,262.7946,6.408317,0.0607558,0.50804714,33.9470,02/29.0/2024,2000,g 15.1,4.0
# From MPEC 2022-VC5
C/2022 S3 (PANSTARRS),h,01/21.6937/2023,78.5351,157.3119,267.9660,1.000400,0.838328,2000,17.0,4.0
# From MPEC 2024-DC6
C/2022 S4 (Lemmon),e,101.2209,220.1744,268.5463,1211,0.0000234,0.99771913,0.0000,07/18.7184/2024,2000,g  8.0,4.0
# From MPEC 2023-HD1
C/2022 S5 (PANSTARRS),e,136.5316,214.8600,232.8019,20.46419,0.0106466,0.89351230,4.8810,02/29.0/2024,2000,g 16.3,4.0
# From MPEC 2024-DC6
C/2022 T1 (Lemmon),e,22.5439,236.9187,324.3091,53667,0.0000001,0.99993581,0.0000,02/17.4722/2024,2000,g  9.0,4.0
# From MPEC 2024-DC6
C/2022 U1 (Leonard),e,128.1496,72.5263,78.5815,6977,0.0000017,0.99939768,0.0000,03/25.8524/2024,2000,g  8.5,4.0
# From MPEC 2023-VM5
C/2022 U2 (ATLAS),e,48.2451,304.4574,147.9320,96.71771,0.0010362,0.98626751,0.0000,01/14.2401/2023,2000,g 16.0,4.0
# From MPEC 2024-DC6
C/2022 U3 (Bok),h,07/28.2331/2024,33.6454,272.7851,189.0712,1.002841,4.826591,2000,7.5,4.0
# From MPEC 2023-W26
C/2022 U4 (Bok),e,52.0372,132.9201,89.0066,3068,0.0000058,0.99905519,0.0000,08/03.6577/2023,2000,g 10.5,4.0
# From MPEC 2024-DC6
C/2022 V2 (Lemmon),e,98.9032,332.8706,168.9505,36.82794,0.0044100,0.94396654,0.5251,02/29.0/2024,2000,g 12.0,4.0
# From MPEC 2023-CD7
P/2022 W1 (Rankin),e,13.4659,38.8165,17.8457,6.970067,0.0535610,0.51664440,28.4422,02/29.0/2024,2000,g 12.5,4.0
# From MPEC 2024-D33
C/2022 W2 (ATLAS),e,63.5232,320.4511,123.2763,343.0524,0.0001551,0.99089621,0.0000,03/08.7560/2023,2000,g 11.5,4.0
# From MPEC 2024-C04
C/2022 W3 (Leonard),e,103.5611,132.2707,116.5248,279.8272,0.0002106,0.99500491,0.0000,06/22.7755/2023,2000,g 13.0,4.0
# From MPEC 2023-M14
C/2022 Y1 (Hogan),e,18.8554,285.9011,174.7848,12.57949,0.0220907,0.76483959,10.1312,02/29.0/2024,2000,g  9.0,4.0
# From MPEC 2023-TM6
C/2022 Y2 (Lemmon),e,165.8897,216.3534,105.4931,19.84910,0.0111453,0.87194224,3.8261,02/29.0/2024,2000,g 13.5,4.0
# From MPEC 2023-KD6
C/2023 A1 (Leonard),e,94.7385,318.3020,159.2481,224.5463,0.0002929,0.99182885,0.0000,03/18.7061/2023,2000,g 14.5,4.0
# From MPEC 2023-J95
C/2023 A2 (SWAN),e,94.7104,94.4818,142.5521,445.7205,0.0001047,0.99787539,0.0000,01/20.3701/2023,2000,g 13.5,4.0
# From MPEC 2024-DC6
C/2023 A3 (Tsuchinshan-ATLAS),h,09/27.7455/2024,139.1129,21.5597,308.4894,1.000113,0.391455,2000,5.0,4.0
# From MPEC 2024-BE0
P/2023 B1 (PANSTARRS),e,14.5883,78.5675,81.3266,7.056418,0.0525809,0.12977152,16.1379,02/29.0/2024,2000,g  5.5,4.0
# From MPEC 2023-XP6
C/2023 B2 (ATLAS),e,40.7712,218.1196,317.3824,598.7957,0.0000673,0.99708971,0.0000,03/10.4868/2023,2000,g 14.5,4.0
# From MPEC 2023-F81
P/2023 B3 (PANSTARRS),e,9.1602,154.0040,240.1456,4.546796,0.1016590,0.12307176,129.2722,02/29.0/2024,2000,g 10.5,4.0
# From MPEC 2024-DC6
C/2023 C2 (ATLAS),e,48.3166,301.0097,357.4572,3326,0.0000051,0.99928794,0.0000,11/16.8139/2024,2000,g  7.0,4.0
# From MPEC 2024-D33
C/2023 E1 (ATLAS),e,38.3033,164.5626,105.9201,19.37078,0.0115607,0.94698901,2.8079,02/29.0/2024,2000,g 15.5,4.0
# From MPEC 2023-N01
C/2023 F1 (PANSTARRS),e,131.7513,25.2504,216.6700,260.9221,0.0002339,0.99345216,0.0000,06/28.3622/2023,2000,g 16.0,4.0
# From MPEC 2024-DC6
C/2023 F3 (ATLAS),h,02/02.7367/2025,145.9604,109.4512,265.5353,1.004313,5.190553,2000,6.0,4.0
# From MPEC 2023-M14
C/2023 H1 (PANSTARRS),e,21.7783,292.6362,333.8413,1536,0.0000164,0.99710749,0.0000,11/28.3686/2024,2000,g 12.6,4.0
# From MPEC 2024-BE0
C/2023 H2 (Lemmon),e,113.7536,217.0447,150.6456,244.5928,0.0002577,0.99634340,0.0000,10/29.1872/2023,2000,g 14.0,4.0
# From MPEC 2023-R20
C/2023 H3 (PANSTARRS),e,2.4894,55.0999,193.3202,13.62835,0.0195902,0.61603890,0.1970,02/29.0/2024,2000,g 10.0,4.0
# From MPEC 2023-SQ0
A/2023 H4,e,76.6190,230.8130,64.9075,140.5843,0.0005913,0.98492371,0.0000,08/08.8216/2023,2000,g 18.0,22.0
# From MPEC 2024-DC6
C/2023 H5 (Lemmon),h,06/30.1607/2025,97.8694,159.4829,60.0779,1.000363,4.313075,2000,7.0,4.0
# From MPEC 2024-D33
C/2023 K1 (ATLAS),e,137.9984,223.7057,337.4615,758.0911,0.0000472,0.99730973,0.0000,09/07.7266/2023,2000,g 13.0,4.0
# From MPEC 2023-N01
P/2023 M1 (PANSTARRS),e,12.2883,216.8623,79.6878,6.847252,0.0550085,0.58727222,4.2141,02/29.0/2024,2000,g 13.5,4.0
# From MPEC 2024-BE0
P/2023 M2 (PANSTARRS),e,19.7254,83.2624,243.0473,5.564483,0.0750874,0.36948256,16.4112,02/29.0/2024,2000,g 12.5,4.0
# From MPEC 2024-A43
P/2023 M4 (ATLAS),e,7.5925,296.2956,320.6704,5.451624,0.0774311,0.27918873,53.0493,02/29.0/2024,2000,g  7.5,4.0
# From MPEC 2024-DC6
C/2023 P1 (Nishimura),e,132.4768,66.8363,116.2964,57.09636,0.0022845,0.99605766,0.0000,09/17.6427/2023,2000,g 10.0,4.0
# From MPEC 2024-D33
C/2023 Q1 (PANSTARRS),h,12/01.2464/2024,36.6621,7.1578,84.4151,1.004886,2.575462,2000,10.0,4.0
# From MPEC 2023-XP6
C/2023 Q2 (PANSTARRS),e,104.0566,92.6800,171.7231,344.2366,0.0001543,0.99067676,0.0000,06/24.0756/2024,2000,g 11.5,4.0
# From MPEC 2024-D33
C/2023 R1 (PANSTARRS),h,04/13.8950/2026,149.3155,62.5513,144.2948,1.001144,3.569844,2000,6.0,4.0
# From MPEC 2024-D33
C/2023 R2 (PANSTARRS),h,08/12.1411/2024,30.6930,188.9232,337.2839,1.000315,0.905296,2000,10.5,4.0
# From MPEC 2023-UR6
A/2023 R3,e,12.0865,347.3510,86.8942,658.6033,0.0000583,0.99793873,0.0000,12/18.1829/2023,2000,g 20.0,22.0
# From MPEC 2024-BE0
C/2023 RN3 (ATLAS),e,10.3574,207.0683,130.3814,10.15979,0.0304353,0.49078431,12.3629,02/29.0/2024,2000,g  7.5,4.0
# From MPEC 2024-DC6
P/2023 S1,e,9.1474,317.4162,180.0410,3.853261,0.1303051,0.32009445,313.0257,02/29.0/2024,2000,g 11.5,4.0
# From MPEC 2023-XP6
C/2023 S2 (ATLAS),e,20.4860,230.5612,78.1160,153.9767,0.0005158,0.99306558,0.0000,10/15.3879/2023,2000,g 15.0,4.0
# From MPEC 2024-DC6
C/2023 S3 (Lemmon),e,140.4981,233.8338,281.5721,28.47465,0.0064866,0.97084558,0.0000,01/19.6240/2024,2000,g 16.0,4.0
# From MPEC 2024-B74
P/2023 S4 (Hogan),e,1.0970,26.7578,11.3191,3.131409,0.1778666,0.18848114,40.5336,02/29.0/2024,2000,g 15.5,4.0
# From MPEC 2024-BE0
P/2023 T1 (PANSTARRS),e,6.6111,249.5736,202.8678,4.232222,0.1132013,0.33432820,350.5016,02/29.0/2024,2000,g 14.0,4.0
# From MPEC 2024-DC6
C/2023 T2 (Borisov),e,48.5978,317.5321,111.1953,229.6695,0.0002832,0.99131163,0.0000,12/22.7935/2023,2000,g 14.5,4.0
# From MPEC 2024-DC6
C/2023 T3 (Fuls),e,27.2220,246.0014,302.8502,700.5382,0.0000532,0.99493487,0.0000,01/25.3889/2025,2000,g  8.5,4.0
# From MPEC 2024-DC6
C/2023 U1 (Fuls),e,108.1474,305.8108,255.6013,2410,0.0000083,0.99793630,0.0000,10/12.5488/2024,2000,g  8.0,4.0
# From MPEC 2024-A43
C/2023 V1 (Lemmon),e,102.0105,15.0271,103.3061,12235,0.0000007,0.99958374,0.0000,07/13.0890/2025,2000,g  8.5,4.0
# From MPEC 2024-D33
P/2023 V2 (PANSTARRS),e,9.8838,95.4759,330.5944,7.250741,0.0504813,0.57184557,1.2542,02/29.0/2024,2000,g 13.5,4.0
# From MPEC 2024-A43
C/2023 V3 (PANSTARRS),e,40.2773,91.4573,291.5965,13.25764,0.0204176,0.66267985,4.2150,02/29.0/2024,2000,g 11.5,4.0
# From MPEC 2024-DC6
C/2023 V4 (Camarasa-Duszanowicz),h,05/30.3651/2024,67.1293,66.3259,50.8539,1.001056,1.121719,2000,12.0,4.0
# From MPEC 2023-W26
C/2023 V5 (Leonard),h,12/13.4377/2023,73.9606,31.4433,56.3959,1.028227,0.849142,2000,21.5,4.0
# From MPEC 2024-AF0
P/2023 V6 (PANSTARRS),e,3.9765,190.0204,193.9342,5.335837,0.0799651,0.17855197,35.0460,02/29.0/2024,2000,g 11.5,4.0
# From MPEC 2024-C04
C/2023 X1 (Leonard),e,110.5893,137.0151,321.4881,168.9948,0.0004486,0.99437466,0.0000,10/18.0962/2023,2000,g 13.5,3.2
# From MPEC 2024-DC6
C/2023 X2 (Lemmon),h,12/26.0313/2025,76.9825,66.3119,64.4445,1.001185,5.101335,2000,8.5,3.2
# From MPEC 2024-A43
P/2023 X3 (PANSTARRS),e,4.4835,62.0137,40.8021,4.248029,0.1125700,0.28669786,354.0475,02/29.0/2024,2000,g 15.5,4.0
# From MPEC 2024-D33
C/2023 X4 (Hogan),e,11.5948,28.7660,100.5344,9.910301,0.0315918,0.63088703,357.2919,02/29.0/2024,2000,g 12.0,4.0
# From MPEC 2024-DA2
C/2023 X7 (PANSTARRS),h,05/14.8496/2025,69.0552,119.2079,354.3379,1.002123,4.821445,2000,9.0,4.0
# From MPEC 2024-DC6
P/2023 Y1 (Gibbs),e,6.3839,78.8555,51.4416,3.746980,0.1358883,0.44494414,12.3970,02/29.0/2024,2000,g 17.0,4.0
# From MPEC 2024-D33
P/2023 Y2 (Gibbs),e,6.9927,79.2301,16.8126,3.744225,0.1360383,0.39212727,27.6338,02/29.0/2024,2000,g 15.5,4.0
# From MPEC 2024-DC6
C/2024 A1 (ATLAS),h,06/13.7559/2025,94.4478,112.1401,353.2968,1.000850,3.876153,2000,7.0,4.0
# From MPEC 2024-DC6
C/2024 A2 (ATLAS),e,119.1106,78.1660,295.5731,32.38099,0.0053490,0.94188935,359.6796,02/29.0/2024,2000,g 12.5,4.0
# From MPEC 2024-D33
C/2024 B1 (Lemmon),h,10/07.6913/2024,70.8920,79.1900,66.2125,1.001109,1.633446,2000,13.0,4.0
# From MPEC 2024-D33
C/2024 B2 (Lemmon),e,99.8386,294.3784,130.3153,5804,0.0000022,0.99929767,0.0000,10/06.0144/2023,2000,g 11.5,4.0
# From MPEC 2024-D33
C/2024 C1 (PANSTARRS),e,14.2265,83.8099,94.5241,10.55587,0.0287384,0.58201995,354.7039,02/29.0/2024,2000,g 11.5,4.0
# From MPEC 2024-CH8
C/2024 C2 (PANSTARRS),e,27.2821,66.4295,87.8931,16.18628,0.0151350,0.44486194,354.2033,02/29.0/2024,2000,g  6.0,4.0
# From MPEC 2024-D97
C/2024 C3 (PANSTARRS),e,22.4670,359.7075,159.6706,11.63879,0.0248223,0.42326836,2.7966,02/29.0/2024,2000,g  9.0,4.0
# From MPEC 2024-D98
C/2024 C4 (ATLAS),h,01/30.8630/2024,79.4561,220.8045,322.0502,1.000026,1.478434,2000,14.5,4.0
# From  98, 1083
1P/Halley,e,162.2111,59.6639,112.5796,17.86880,0.0130485,0.96679446,181.0530,02/29.0/2024,2000,g  4.0,6.0
# From MPEC 2024-DC6
